NORAD_CAT_ID,OBJECT_NAME,OBJECT_TYPE,EPOCH,MEAN_MOTION,ECCENTRICITY,INCLINATION,RA_OF_ASC_NODE,ARG_OF_PERICENTER,MEAN_ANOMALY,BSTAR,MEAN_MOTION_DOT,MEAN_MOTION_DDOT,TLE_LINE0,TLE_LINE1,TLE_LINE2,SEMIMAJOR_AXIS,PERIOD,APOGEE,PERIGEE,DECAYED
56799.0,STARLINK-5953,PAYLOAD,2024-08-04 13:04:31,14.98322605,0.0003116,70.0012,12.1233,269.5927,90.4875,1.5132e-05,8.8e-07,0.0,0 STARLINK-5953,1 56799U 23078AJ  24217.54481209  .00000088  00000-0  15132-4 0  9997,2 56799  70.0012  12.1233 0003116 269.5927  90.4875 14.98322605 65746,6950.216,96.107,574.246,569.915,0.0
56799.0,STARLINK-5953,PAYLOAD,2024-08-04 14:40:39,14.98321902,0.0003059,70.0014,11.9553,268.232,91.8489,9.1908e-06,1.7e-07,0.0,0 STARLINK-5953,1 56799U 23078AJ  24217.61157288  .00000017  00000-0  91908-5 0  9990,2 56799  70.0014  11.9553 0003059 268.2320  91.8489 14.98321902 65496,6950.218,96.108,574.209,569.957,0.0
56799.0,STARLINK-5953,PAYLOAD,2024-08-04 19:29:03,14.9832808,0.0002796,70.0018,11.4503,263.8269,96.2571,8.8531e-05,9.63e-06,0.0,0 STARLINK-5953,1 56799U 23078AJ  24217.81184757  .00000963  00000-0  88531-4 0  9990,2 56799  70.0018  11.4503 0002796 263.8269  96.2571 14.98328080 65787,6950.199,96.107,574.007,570.121,0.0
56799.0,STARLINK-5953,PAYLOAD,2024-08-05 19:31:04,14.98336505,0.0002976,70.0014,8.9257,266.5829,93.4989,2.8135e-05,2.43e-06,0.0,0 STARLINK-5953,1 56799U 23078AJ  24218.81324180  .00000243  00000-0  28135-4 0  9992,2 56799  70.0014   8.9257 0002976 266.5829  93.4989 14.98336505 65932,6950.173,96.107,574.106,569.969,0.0
56799.0,STARLINK-5953,PAYLOAD,2024-08-06 13:08:33,14.98322966,0.000281,70.0019,7.073,267.0378,93.0459,-1.3224e-05,-2.51e-06,0.0,0 STARLINK-5953,1 56799U 23078AJ  24219.54761174 -.00000251  00000-0 -13224-4 0  9995,2 56799  70.0019   7.0730 0002810 267.0378  93.0459 14.98322966 66042,6950.215,96.107,574.033,570.127,0.0
56799.0,STARLINK-5953,PAYLOAD,2024-08-06 14:44:41,14.98322874,0.0002902,70.0017,6.9051,267.9753,92.1074,-8.0959e-06,-1.9e-06,0.0,0 STARLINK-5953,1 56799U 23078AJ  24219.61437199 -.00000190  00000-0 -80959-5 0  9992,2 56799  70.0017   6.9051 0002902 267.9753  92.1074 14.98322874 65794,6950.215,96.107,574.097,570.063,0.0
56799.0,STARLINK-5953,PAYLOAD,2024-08-06 19:33:05,14.98327357,0.0003043,70.0014,6.4008,269.3882,90.6929,2.4524e-05,2e-06,0.0,0 STARLINK-5953,1 56799U 23078AJ  24219.81464852  .00000200  00000-0  24524-4 0  9995,2 56799  70.0014   6.4008 0003043 269.3882  90.6929 14.98327357 65821,6950.201,96.107,574.181,569.951,0.0
56799.0,STARLINK-5953,PAYLOAD,2024-08-07 11:34:25,14.98333903,0.000314,70.0016,4.7182,270.1018,89.9782,6.0667e-05,6.31e-06,0.0,0 STARLINK-5953,1 56799U 23078AJ  24220.48224336  .00000631  00000-0  60667-4 0  9997,2 56799  70.0016   4.7182 0003140 270.1018  89.9782 14.98333903 66188,6950.181,96.107,574.228,569.863,0.0
56799.0,STARLINK-5953,PAYLOAD,2024-08-07 19:35:05,14.98341736,0.0003085,70.0018,3.8756,269.7245,90.356,0.00016641,1.894e-05,0.0,0 STARLINK-5953,1 56799U 23078AJ  24220.81603441  .00001894  00000-0  16641-3 0  9996,2 56799  70.0018   3.8756 0003085 269.7245  90.3560 14.98341736 66230,6950.157,96.106,574.166,569.877,0.0
56799.0,STARLINK-5953,PAYLOAD,2024-08-08 13:12:34,14.9832858,0.0002692,70.0033,2.025,264.7429,95.3423,0.00011942,1.332e-05,0.0,0 STARLINK-5953,1 56799U 23078AJ  24221.55040328  .00001332  00000-0  11942-3 0  9993,2 56799  70.0033   2.0250 0002692 264.7429  95.3423 14.98328580 66087,6950.197,96.107,573.933,570.191,0.0
56799.0,STARLINK-5953,PAYLOAD,2024-08-08 19:37:06,14.98330502,0.0002647,70.0034,1.3521,261.4466,98.6394,0.00011653,1.298e-05,0.0,0 STARLINK-5953,1 56799U 23078AJ  24221.81744199  .00001298  00000-0  11653-3 0  9999,2 56799  70.0034   1.3521 0002647 261.4466  98.6394 14.98330502 66389,6950.191,96.107,573.896,570.217,0.0
56799.0,STARLINK-5953,PAYLOAD,2024-08-09 13:14:35,14.98332066,0.0002591,70.0037,359.5014,259.5799,100.5068,-1.9076e-06,-1.16e-06,0.0,0 STARLINK-5953,1 56799U 23078AJ  24222.55180343 -.00000116  00000-0 -19076-5 0  9995,2 56799  70.0037 359.5014 0002591 259.5799 100.5068 14.98332066 66234,6950.187,96.107,573.852,570.251,0.0
56799.0,STARLINK-5953,PAYLOAD,2024-08-09 19:39:07,14.98337345,0.0002462,70.0041,358.8285,265.3808,94.707,6.4538e-05,6.77e-06,0.0,0 STARLINK-5953,1 56799U 23078AJ  24222.81883866  .00000677  00000-0  64538-4 0  9996,2 56799  70.0041 358.8285 0002462 265.3808  94.7070 14.98337345 66539,6950.17,96.107,573.746,570.324,0.0
56799.0,STARLINK-5953,PAYLOAD,2024-08-10 13:16:36,14.98327679,0.0002345,70.0042,356.9772,250.6033,109.4873,3.5956e-05,3.36e-06,0.0,0 STARLINK-5953,1 56799U 23078AJ  24223.55320311  .00000336  00000-0  35956-4 0  9993,2 56799  70.0042 356.9772 0002345 250.6033 109.4873 14.98327679 66643,6950.2,96.107,573.695,570.435,0.0
56799.0,STARLINK-5953,PAYLOAD,2024-08-10 14:52:44,14.98327011,0.0002369,70.0041,356.8087,250.4021,109.6883,2.8373e-05,2.46e-06,0.0,0 STARLINK-5953,1 56799U 23078AJ  24223.61996376  .00000246  00000-0  28373-4 0  9995,2 56799  70.0041 356.8087 0002369 250.4021 109.6883 14.98327011 66396,6950.202,96.107,573.714,570.421,0.0
56799.0,STARLINK-5953,PAYLOAD,2024-08-10 18:05:00,14.98332698,0.0002586,70.0033,356.4724,259.997,100.0897,2.7902e-05,2.4e-06,0.0,0 STARLINK-5953,1 56799U 23078AJ  24223.75347982  .00000240  00000-0  27902-4 0  9994,2 56799  70.0033 356.4724 0002586 259.9970 100.0897 14.98332698 66419,6950.185,96.107,573.847,570.252,0.0
56799.0,STARLINK-5953,PAYLOAD,2024-08-11 18:07:01,14.98342113,0.0002572,70.0029,353.9504,266.5651,93.5214,-0.00023751,-2.926e-05,0.0,0 STARLINK-5953,1 56799U 23078AJ  24224.75488187 -.00002926  00000-0 -23751-3 0  9990,2 56799  70.0029 353.9504 0002572 266.5651  93.5214 14.98342113 66824,6950.155,96.106,573.808,570.233,0.0
56799.0,STARLINK-5953,PAYLOAD,2024-08-12 14:56:44,14.98353519,0.0003225,70.0023,351.7584,272.8612,87.2178,0.00025172,2.914e-05,0.0,0 STARLINK-5953,1 56799U 23078AJ  24225.62273989  .00002914  00000-0  25172-3 0  9993,2 56799  70.0023 351.7584 0003225 272.8612  87.2178 14.98353519 66691,6950.12,96.105,574.227,569.744,0.0
56799.0,STARLINK-5953,PAYLOAD,2024-08-12 18:08:56,14.98403359,0.0003517,70.0024,351.4215,270.4884,89.5873,0.00079704,9.448e-05,0.0,0 STARLINK-5953,1 56799U 23078AJ  24225.75621209  .00009448  00000-0  79704-3 0  9998,2 56799  70.0024 351.4215 0003517 270.4884  89.5873 14.98403359 66975,6949.966,96.102,574.275,569.387,0.0
56799.0,STARLINK-5953,PAYLOAD,2024-08-13 02:09:39,14.98363905,0.0002954,70.0021,350.5792,275.2604,84.8218,0.00033373,3.895e-05,0.0,0 STARLINK-5953,1 56799U 23078AJ  24226.09004208  .00003895  00000-0  33373-3 0  9992,2 56799  70.0021 350.5792 0002954 275.2604  84.8218 14.98363905 67029,6950.088,96.105,574.006,569.9,0.0
56799.0,STARLINK-5953,PAYLOAD,2024-08-13 10:10:27,14.98269271,0.0002738,70.0005,349.7378,265.9517,94.1329,-0.00058442,-7.048e-05,0.0,0 STARLINK-5953,1 56799U 23078AJ  24226.42392708 -.00007048  00000-0 -58442-3 0  9994,2 56799  70.0005 349.7378 0002738 265.9517  94.1329 14.98269271 67073,6950.381,96.111,574.149,570.343,0.0
56799.0,STARLINK-5953,PAYLOAD,2024-08-14 13:24:41,14.98327532,0.0002537,70.0055,346.8774,244.721,115.3686,0.00010137,1.117e-05,0.0,0 STARLINK-5953,1 56799U 23078AJ  24227.55881527  .00001117  00000-0  10137-3 0  9999,2 56799  70.0055 346.8774 0002537 244.7210 115.3686 14.98327532 67244,6950.201,96.107,573.829,570.302,0.0
56799.0,STARLINK-5953,PAYLOAD,2024-08-14 15:00:48,14.98347503,0.0003045,70.0021,346.7084,264.2361,95.8451,1.1006e-05,3.8e-07,0.0,0 STARLINK-5953,1 56799U 23078AJ  24227.62556593  .00000038  00000-0  11006-4 0  9997,2 56799  70.0021 346.7084 0003045 264.2361  95.8451 14.98347503 66992,6950.139,96.106,574.12,569.887,0.0
56799.0,STARLINK-5953,PAYLOAD,2024-08-14 18:13:04,14.98348035,0.0003042,70.0021,346.372,263.8451,96.2361,2.5433e-05,2.11e-06,0.0,0 STARLINK-5953,1 56799U 23078AJ  24227.75908449  .00000211  00000-0  25433-4 0  9994,2 56799  70.0021 346.3720 0003042 263.8451  96.2361 14.98348035 67275,6950.137,96.106,574.116,569.888,0.0
56799.0,STARLINK-5953,PAYLOAD,2024-08-15 10:14:26,14.98305152,0.0002791,70.0023,344.6892,258.1362,101.9485,0.00081474,9.635e-05,0.0,0 STARLINK-5953,1 56799U 23078AJ  24228.42669074  .00009635  00000-0  81474-3 0  9992,2 56799  70.0023 344.6892 0002791 258.1362 101.9485 14.98305152 67113,6950.27,96.109,574.075,570.195,0.0
56799.0,STARLINK-5953,PAYLOAD,2024-08-16 00:39:38,14.98352261,0.0002835,70.0023,343.1741,254.5385,105.5461,5.8987e-05,6.11e-06,0.0,0 STARLINK-5953,1 56799U 23078AJ  24229.02752710  .00000611  00000-0  58987-4 0  9998,2 56799  70.0023 343.1741 0002835 254.5385 105.5461 14.98352261 67469,6950.124,96.106,573.959,570.019,0.0
56799.0,STARLINK-5953,PAYLOAD,2024-08-16 10:16:26,14.98344351,0.0002705,70.0029,342.1659,247.6051,112.4821,-1.9291e-05,-3.23e-06,0.0,0 STARLINK-5953,1 56799U 23078AJ  24229.42808955 -.00000323  00000-0 -19291-4 0  9992,2 56799  70.0029 342.1659 0002705 247.6051 112.4821 14.98344351 67526,6950.149,96.106,573.894,570.133,0.0
56799.0,STARLINK-5953,PAYLOAD,2024-08-17 16:43:00,14.98330646,0.0002797,70.0042,338.9709,247.655,112.4312,-0.00015604,-1.954e-05,0.0,0 STARLINK-5953,1 56799U 23078AJ  24230.69653320 -.00001954  00000-0 -15604-3 0  9991,2 56799  70.0042 338.9709 0002797 247.6550 112.4312 14.98330646 67713,6950.191,96.107,574.0,570.112,0.0
56799.0,STARLINK-5953,PAYLOAD,2024-08-18 13:32:42,14.98357113,0.0002789,70.0035,336.7813,256.0952,103.9897,0.00028869,3.356e-05,0.0,0 STARLINK-5953,1 56799U 23078AJ  24231.56437514  .00003356  00000-0  28869-3 0  9996,2 56799  70.0035 336.7813 0002789 256.0952 103.9897 14.98357113 67843,6950.109,96.105,573.912,570.036,0.0
56799.0,STARLINK-5953,PAYLOAD,2024-08-18 16:44:57,14.98361536,0.0002837,70.0026,336.4434,254.5427,105.5418,0.00028749,3.342e-05,0.0,0 STARLINK-5953,1 56799U 23078AJ  24231.69788914  .00003342  00000-0  28749-3 0  9995,2 56799  70.0026 336.4434 0002837 254.5427 105.5418 14.98361536 67608,6950.095,96.105,573.932,569.989,0.0
